{"type": "Feature", "properties": {"oneway": 1, "refs": ["1", "2", "3"], "id": "123", "highway": "motorway", "maxspeed":"60"}, "geometry": {"type":"LineString", "coordinates": [[2.4585342407226562,48.883456897746534],[2.4451446533203125,48.877812415009195],[2.4235153198242188,48.866521538507754]]}}
{"type": "Feature", "properties": {"oneway": 1, "refs": ["11", "22", "33"], "id": "223", "highway": "motorway"}, "geometry": {"type":"LineString", "coordinates": [[2.4235153198242188,48.866521538507754],[2.4451446533203125,48.877812415009195],[2.4585342407226562,48.883456897746534]]}}
{"type": "Feature", "properties": {"oneway": 0, "refs": ["44", "55"], "id": "224", "highway": "residential", "maxspeed":"20"}, "geometry": {"type":"LineString", "coordinates": [[2.4585342407226562,48.883456897746534],[2.4580836296081543,48.884966688891]]}}
{"type": "Feature", "properties": {"oneway": 0, "refs": ["5", "6"], "id": "567", "highway": "secondary_link", "maxspeed":"50"}, "geometry": {"type":"LineString", "coordinates": [[2.567882537841797,48.866295694987045],[2.563934326171875,48.87092528343819]]}}
